ICEYE-X2                
1 43800U 18099AU  26204.85970583  .00005136  00000+0  25469-3 0  9994
2 43800  97.4343 258.0590 0010773 164.7583 195.3978 15.18116284418381
ICEYE-X4                
1 44390U 19038D   26204.89559360  .00013676  00000+0  47162-3 0  9995
2 44390  97.8752 239.9835 0013767 168.1694 191.9871 15.30034634387416
ICEYE-X7                
1 46496U 20068L   26204.85158628  .00012875  00000+0  41574-3 0  9998
2 46496  97.7510 173.0683 0007116 179.7712 180.3533 15.32239786320405
ICEYE-X6                
1 46497U 20068M   26204.83461971  .00002465  00000+0  17990-3 0  9994
2 46497  98.0995 200.2660 0006338 343.0116  17.0895 15.04699121318747
ICEYE-X21               
1 55049U 23001AS  26175.21618542  .01585954  23968-5  60214-3 0  9995
2 55049  97.3001 262.6152 0012377 285.9702  74.0225 16.24069885194757
ICEYE-X25               
1 56963U 23084AH  26204.83136505  .00035245  00000+0  38525-3 0  9995
2 56963  97.5914 353.7031 0004751 158.0582 202.0880 15.63243448173690
ICEYE-X31               
1 58288U 23174AJ  26204.84089766  .00019455  00000+0  56724-3 0  9990
2 58288  97.3767 280.5962 0003448 163.6443 196.4912 15.35399245150374
ICEYE-X34               
1 58294U 23174AQ  26204.72178207  .00218824  00000+0  15232-2 0  9992
2 58294  97.3839 297.8921 0002481 231.7751 128.3290 15.73726539151479
ICEYE-X35               
1 58302U 23174AY  26204.87532830  .00063394  00000+0  90955-3 0  9990
2 58302  97.3776 290.5507 0006769  77.5809 282.6202 15.55906710151043
ICEYE-X38               
1 59100U 24043C   26204.82237428  .00005622  00000+0  32103-3 0  9994
2 59100  97.8441 349.5936 0001623 350.0461  10.0737 15.13148438117218
ICEYE-X37               
1 59102U 24043E   26204.85123111  .00003900  00000+0  26906-3 0  9993
2 59102  97.8354 342.4423 0013906 241.6443 118.3382 15.06340841130608
ICEYE-X36               
1 59103U 24043F   26204.76683046  .00003406  00000+0  23004-3 0  9999
2 59103  97.8406 343.5057 0005996 181.3318 178.7894 15.07282966130650
ICEYE-X43               
1 60539U 24149BZ  26204.19102207  .00000960  00000+0  82407-4 0  9998
2 60539  97.6773 280.6715 0006404 310.7752  49.2915 14.99783035105513
ICEYE-X39               
1 60546U 24149CG  26204.16594167  .00003353  00000+0  27346-3 0  9992
2 60546  97.6804 280.7085 0006624  23.6608 336.4919 15.00117787105514
ICEYE-X33               
1 60548U 24149CJ  26204.50333147  .00004209  00000+0  33528-3 0  9991
2 60548  97.7394 283.4673 0001993  70.4772 289.6667 15.00905781105653
