{"fetched_at":"2026-07-24T07:06:35.314Z","source":"https://celestrak.org/NORAD/elements/gp.php?NAME=ICEYE&FORMAT=JSON","constellation":"iceye","records":[{"OBJECT_NAME":"ICEYE-X2","OBJECT_ID":"2018-099AU","EPOCH":"2026-07-23T20:37:58.583712","CLASSIFICATION_TYPE":"U","MEAN_MOTION":15.18116284,"ECCENTRICITY":0.0010773,"INCLINATION":97.4343,"RA_OF_ASC_NODE":258.059,"ARG_OF_PERICENTER":164.7583,"MEAN_ANOMALY":195.3978,"EPHEMERIS_TYPE":0,"NORAD_CAT_ID":43800,"ELEMENT_SET_NO":999,"REV_AT_EPOCH":41838,"BSTAR":0.00025469,"MEAN_MOTION_DOT":0.00005136,"MEAN_MOTION_DDOT":0},{"OBJECT_NAME":"ICEYE-X4","OBJECT_ID":"2019-038D","EPOCH":"2026-07-23T21:29:39.287040","CLASSIFICATION_TYPE":"U","MEAN_MOTION":15.30034634,"ECCENTRICITY":0.0013767,"INCLINATION":97.8752,"RA_OF_ASC_NODE":239.9835,"ARG_OF_PERICENTER":168.1694,"MEAN_ANOMALY":191.9871,"EPHEMERIS_TYPE":0,"NORAD_CAT_ID":44390,"ELEMENT_SET_NO":999,"REV_AT_EPOCH":38741,"BSTAR":0.00047162,"MEAN_MOTION_DOT":0.00013676,"MEAN_MOTION_DDOT":0},{"OBJECT_NAME":"ICEYE-X7","OBJECT_ID":"2020-068L","EPOCH":"2026-07-23T20:26:17.054592","CLASSIFICATION_TYPE":"U","MEAN_MOTION":15.32239786,"ECCENTRICITY":0.0007116,"INCLINATION":97.751,"RA_OF_ASC_NODE":173.0683,"ARG_OF_PERICENTER":179.7712,"MEAN_ANOMALY":180.3533,"EPHEMERIS_TYPE":0,"NORAD_CAT_ID":46496,"ELEMENT_SET_NO":999,"REV_AT_EPOCH":32040,"BSTAR":0.00041574,"MEAN_MOTION_DOT":0.00012875,"MEAN_MOTION_DDOT":0},{"OBJECT_NAME":"ICEYE-X6","OBJECT_ID":"2020-068M","EPOCH":"2026-07-23T20:01:51.142944","CLASSIFICATION_TYPE":"U","MEAN_MOTION":15.04699121,"ECCENTRICITY":0.0006338,"INCLINATION":98.0995,"RA_OF_ASC_NODE":200.266,"ARG_OF_PERICENTER":343.0116,"MEAN_ANOMALY":17.0895,"EPHEMERIS_TYPE":0,"NORAD_CAT_ID":46497,"ELEMENT_SET_NO":999,"REV_AT_EPOCH":31874,"BSTAR":0.0001799,"MEAN_MOTION_DOT":0.00002465,"MEAN_MOTION_DDOT":0},{"OBJECT_NAME":"ICEYE-X21","OBJECT_ID":"2023-001AS","EPOCH":"2026-06-24T05:11:18.420288","CLASSIFICATION_TYPE":"U","MEAN_MOTION":16.24069885,"ECCENTRICITY":0.00123774,"INCLINATION":97.3001,"RA_OF_ASC_NODE":262.6152,"ARG_OF_PERICENTER":285.9702,"MEAN_ANOMALY":74.0225,"EPHEMERIS_TYPE":0,"NORAD_CAT_ID":55049,"ELEMENT_SET_NO":999,"REV_AT_EPOCH":19475,"BSTAR":0.000602142,"MEAN_MOTION_DOT":0.01585954,"MEAN_MOTION_DDOT":0.000002396838},{"OBJECT_NAME":"ICEYE-X25","OBJECT_ID":"2023-084AH","EPOCH":"2026-07-23T19:57:09.940320","CLASSIFICATION_TYPE":"U","MEAN_MOTION":15.63243448,"ECCENTRICITY":0.0004751,"INCLINATION":97.5914,"RA_OF_ASC_NODE":353.7031,"ARG_OF_PERICENTER":158.0582,"MEAN_ANOMALY":202.088,"EPHEMERIS_TYPE":0,"NORAD_CAT_ID":56963,"ELEMENT_SET_NO":999,"REV_AT_EPOCH":17369,"BSTAR":0.00038525,"MEAN_MOTION_DOT":0.00035245,"MEAN_MOTION_DDOT":0},{"OBJECT_NAME":"ICEYE-X31","OBJECT_ID":"2023-174AJ","EPOCH":"2026-07-23T20:10:53.557824","CLASSIFICATION_TYPE":"U","MEAN_MOTION":15.35399245,"ECCENTRICITY":0.0003448,"INCLINATION":97.3767,"RA_OF_ASC_NODE":280.5962,"ARG_OF_PERICENTER":163.6443,"MEAN_ANOMALY":196.4912,"EPHEMERIS_TYPE":0,"NORAD_CAT_ID":58288,"ELEMENT_SET_NO":999,"REV_AT_EPOCH":15037,"BSTAR":0.00056724,"MEAN_MOTION_DOT":0.00019455,"MEAN_MOTION_DDOT":0},{"OBJECT_NAME":"ICEYE-X34","OBJECT_ID":"2023-174AQ","EPOCH":"2026-07-23T17:19:21.970848","CLASSIFICATION_TYPE":"U","MEAN_MOTION":15.73726539,"ECCENTRICITY":0.0002481,"INCLINATION":97.3839,"RA_OF_ASC_NODE":297.8921,"ARG_OF_PERICENTER":231.7751,"MEAN_ANOMALY":128.329,"EPHEMERIS_TYPE":0,"NORAD_CAT_ID":58294,"ELEMENT_SET_NO":999,"REV_AT_EPOCH":15147,"BSTAR":0.0015232,"MEAN_MOTION_DOT":0.00218824,"MEAN_MOTION_DDOT":0},{"OBJECT_NAME":"ICEYE-X35","OBJECT_ID":"2023-174AY","EPOCH":"2026-07-23T21:00:28.365120","CLASSIFICATION_TYPE":"U","MEAN_MOTION":15.5590671,"ECCENTRICITY":0.0006769,"INCLINATION":97.3776,"RA_OF_ASC_NODE":290.5507,"ARG_OF_PERICENTER":77.5809,"MEAN_ANOMALY":282.6202,"EPHEMERIS_TYPE":0,"NORAD_CAT_ID":58302,"ELEMENT_SET_NO":999,"REV_AT_EPOCH":15104,"BSTAR":0.00090955,"MEAN_MOTION_DOT":0.00063394,"MEAN_MOTION_DDOT":0},{"OBJECT_NAME":"ICEYE-X38","OBJECT_ID":"2024-043C","EPOCH":"2026-07-23T19:44:13.137792","CLASSIFICATION_TYPE":"U","MEAN_MOTION":15.13148438,"ECCENTRICITY":0.0001623,"INCLINATION":97.8441,"RA_OF_ASC_NODE":349.5936,"ARG_OF_PERICENTER":350.0461,"MEAN_ANOMALY":10.0737,"EPHEMERIS_TYPE":0,"NORAD_CAT_ID":59100,"ELEMENT_SET_NO":999,"REV_AT_EPOCH":11721,"BSTAR":0.00032103,"MEAN_MOTION_DOT":0.00005622,"MEAN_MOTION_DDOT":0},{"OBJECT_NAME":"ICEYE-X37","OBJECT_ID":"2024-043E","EPOCH":"2026-07-23T20:25:46.367904","CLASSIFICATION_TYPE":"U","MEAN_MOTION":15.06340841,"ECCENTRICITY":0.0013906,"INCLINATION":97.8354,"RA_OF_ASC_NODE":342.4423,"ARG_OF_PERICENTER":241.6443,"MEAN_ANOMALY":118.3382,"EPHEMERIS_TYPE":0,"NORAD_CAT_ID":59102,"ELEMENT_SET_NO":999,"REV_AT_EPOCH":13060,"BSTAR":0.00026906,"MEAN_MOTION_DOT":0.000039,"MEAN_MOTION_DDOT":0},{"OBJECT_NAME":"ICEYE-X36","OBJECT_ID":"2024-043F","EPOCH":"2026-07-23T18:24:14.151744","CLASSIFICATION_TYPE":"U","MEAN_MOTION":15.07282966,"ECCENTRICITY":0.0005996,"INCLINATION":97.8406,"RA_OF_ASC_NODE":343.5057,"ARG_OF_PERICENTER":181.3318,"MEAN_ANOMALY":178.7894,"EPHEMERIS_TYPE":0,"NORAD_CAT_ID":59103,"ELEMENT_SET_NO":999,"REV_AT_EPOCH":13065,"BSTAR":0.00023004,"MEAN_MOTION_DOT":0.00003406,"MEAN_MOTION_DDOT":0},{"OBJECT_NAME":"ICEYE-X43","OBJECT_ID":"2024-149BZ","EPOCH":"2026-07-23T04:35:04.306848","CLASSIFICATION_TYPE":"U","MEAN_MOTION":14.99783035,"ECCENTRICITY":0.0006404,"INCLINATION":97.6773,"RA_OF_ASC_NODE":280.6715,"ARG_OF_PERICENTER":310.7752,"MEAN_ANOMALY":49.2915,"EPHEMERIS_TYPE":0,"NORAD_CAT_ID":60539,"ELEMENT_SET_NO":999,"REV_AT_EPOCH":10551,"BSTAR":0.000082407,"MEAN_MOTION_DOT":0.0000096,"MEAN_MOTION_DDOT":0},{"OBJECT_NAME":"ICEYE-X39","OBJECT_ID":"2024-149CG","EPOCH":"2026-07-23T03:58:57.360288","CLASSIFICATION_TYPE":"U","MEAN_MOTION":15.00117787,"ECCENTRICITY":0.00066246,"INCLINATION":97.6804,"RA_OF_ASC_NODE":280.7085,"ARG_OF_PERICENTER":23.6608,"MEAN_ANOMALY":336.4919,"EPHEMERIS_TYPE":0,"NORAD_CAT_ID":60546,"ELEMENT_SET_NO":999,"REV_AT_EPOCH":10551,"BSTAR":0.00027345779,"MEAN_MOTION_DOT":0.00003353,"MEAN_MOTION_DDOT":0},{"OBJECT_NAME":"ICEYE-X33","OBJECT_ID":"2024-149CJ","EPOCH":"2026-07-23T12:04:47.839008","CLASSIFICATION_TYPE":"U","MEAN_MOTION":15.00905781,"ECCENTRICITY":0.0001993,"INCLINATION":97.7394,"RA_OF_ASC_NODE":283.4673,"ARG_OF_PERICENTER":70.4772,"MEAN_ANOMALY":289.6667,"EPHEMERIS_TYPE":0,"NORAD_CAT_ID":60548,"ELEMENT_SET_NO":999,"REV_AT_EPOCH":10565,"BSTAR":0.00033528,"MEAN_MOTION_DOT":0.00004209,"MEAN_MOTION_DDOT":0}]}
